OBJECT_NAME,OBJECT_ID,EPOCH,MEAN_MOTION,ECCENTRICITY,INCLINATION,RA_OF_ASC_NODE,ARG_OF_PERICENTER,MEAN_ANOMALY,EPHEMERIS_TYPE,CLASSIFICATION_TYPE,NORAD_CAT_ID,ELEMENT_SET_NO,REV_AT_EPOCH,BSTAR,MEAN_MOTION_DOT,MEAN_MOTION_DDOT
STARLINK-5983,2023-094G,2026-07-07T01:17:39.945120,15.27620677,.0001415,43.0026,76.3600,268.6884,91.3806,0,U,57224,999,16537,-.44224E-3,-.12426E-3,0
STARLINK-6294,2023-094H,2026-07-05T22:15:02.094912,15.27571554,.00016238,43.0044,83.3812,262.8376,97.2291,0,U,57225,999,16519,-.396397E-4,-.1353E-4,0
STARLINK-6350,2023-094J,2026-07-07T00:35:19.328928,15.27568331,.0001515,43.0056,76.9993,261.0570,99.0110,0,U,57226,999,16536,-.19E-4,-.785E-5,0
STARLINK-5996,2023-094K,2026-07-06T22:17:52.695168,15.27580859,.0001421,43.0044,80.5493,267.3888,92.6801,0,U,57227,999,16531,.2275E-4,.364E-5,0
STARLINK-6230,2023-094L,2026-07-06T23:23:10.225824,15.27581456,.0001347,43.0026,76.6251,263.5854,96.4844,0,U,57228,999,16536,-.15728E-3,-.4588E-4,0
STARLINK-6233,2023-094M,2026-07-06T23:06:43.202592,15.27558253,.0001812,43.0032,77.4009,281.8249,78.2400,0,U,57229,999,16535,.64397E-5,-.85E-6,0
STARLINK-6250,2023-094N,2026-07-07T00:44:35.590272,15.27571527,.0001022,43.0044,77.0489,319.4141,40.6635,0,U,57230,999,16536,.15146E-4,.155E-5,0
STARLINK-5840,2023-094P,2026-07-07T02:03:56.327040,15.27560941,.0001052,43.0047,76.5998,280.1202,79.9531,0,U,57231,999,16537,.27738E-5,-.186E-5,0
STARLINK-5872,2023-094Q,2026-07-06T02:24:10.886400,15.27561807,.00020983,43.0087,82.0955,321.1407,38.9294,0,U,57232,999,16588,-.976541E-4,-.2947E-4,0
STARLINK-5866,2023-094R,2026-07-07T01:47:15.987840,15.27584322,.0001622,43.0049,76.5140,263.9870,96.0797,0,U,57233,999,16537,.25593E-4,.442E-5,0
STARLINK-6368,2023-094S,2026-07-07T01:10:16.566240,15.27570921,.0001026,43.0033,76.3138,257.0044,103.0693,0,U,57234,999,16537,-.60686E-4,-.1931E-4,0
STARLINK-6360,2023-094T,2026-07-07T01:41:42.368064,15.27575233,.0002122,43.0062,76.4872,272.1919,87.8690,0,U,57235,999,16537,.4595E-5,-.136E-5,0
STARLINK-6315,2023-094U,2026-07-07T01:10:29.752608,15.27570397,.0001933,43.0059,65.8883,258.2992,101.7643,0,U,57236,999,16549,-.55371E-4,-.1785E-4,0
STARLINK-6365,2023-094V,2026-07-07T03:02:56.173920,15.27564817,.0001004,43.0037,76.0432,275.7153,84.3584,0,U,57237,999,16538,-.25263E-4,-.957E-5,0
STARLINK-6334,2023-094W,2026-07-07T01:30:49.758624,15.27577818,.0001729,43.0037,65.9828,264.9485,95.1169,0,U,57238,999,16549,.22683E-4,.362E-5,0
STARLINK-6330,2023-094X,2026-07-07T01:15:50.092704,15.27576697,.0001278,43.0025,76.3433,274.2936,85.7769,0,U,57239,999,16537,.51269E-4,.1149E-4,0
STARLINK-6351,2023-094Y,2026-07-07T00:18:41.819328,15.27565668,.0001181,43.0026,65.6131,242.6666,117.4066,0,U,57240,999,16549,-.4178E-4,-.1411E-4,0
STARLINK-6349,2023-094Z,2026-07-07T01:16:03.830304,15.27561784,.0000987,43.0062,65.9165,292.4851,67.5896,0,U,57241,999,16549,-.76762E-4,-.2372E-4,0
STARLINK-6306,2023-094AA,2026-07-07T01:25:19.178400,15.27527092,.0000821,43.0059,65.9608,262.4817,97.5941,0,U,57242,999,16549,.33038E-3,.8826E-4,0
STARLINK-6346,2023-094AB,2026-07-07T01:19:44.641056,15.27573500,.0001562,43.0065,65.9333,274.2303,85.8370,0,U,57243,999,16549,-.218E-4,-.862E-5,0
STARLINK-5610,2023-094AC,2026-07-06T02:11:14.319744,15.27565127,.00013588,43.0025,70.7368,263.6136,96.4561,0,U,57244,999,16535,.14462384E-4,.136E-5,0
STARLINK-5587,2023-094AD,2026-07-07T01:36:23.520096,15.27570589,.0001597,43.0065,66.0080,259.6900,100.3771,0,U,57245,999,16549,.45355E-4,.986E-5,0
STARLINK-5049,2023-094AE,2026-07-07T01:47:18.127104,15.27560470,.0001279,43.0027,65.2117,270.6952,89.3753,0,U,57246,999,16550,.58757E-5,-.1E-5,0
STARLINK-5039,2023-094AF,2026-07-07T01:58:23.355264,15.27573623,.0001123,43.0027,65.2660,276.9874,83.0850,0,U,57247,999,16550,.59655E-5,-.98E-6,0
STARLINK-5514,2023-094AG,2026-07-07T02:03:57.579840,15.27567423,.0000872,43.0020,65.2939,264.1029,95.9723,0,U,57248,999,16550,-.12164E-4,-.596E-5,0
STARLINK-5517,2023-094AH,2026-07-07T00:35:19.877568,15.27566900,.0001018,43.0050,65.6344,252.3878,107.6862,0,U,57249,999,16549,-.62755E-4,-.1988E-4,0
STARLINK-5488,2023-094AJ,2026-07-07T00:55:41.664288,15.27569470,.0001853,43.0064,65.8033,283.5407,76.5238,0,U,57250,999,16549,-.72769E-4,-.2264E-4,0
STARLINK-5513,2023-094AK,2026-07-07T00:40:53.752224,15.27568754,.000151,43.0051,65.7239,270.6711,89.3968,0,U,57251,999,16549,-.83155E-4,-.2549E-4,0
STARLINK-5511,2023-094AL,2026-07-07T00:22:23.102688,15.27567264,.0001449,43.0053,65.6325,268.5147,91.5539,0,U,57252,999,16549,-.4293E-5,-.38E-5,0
STARLINK-5516,2023-094AM,2026-07-07T00:50:08.625120,15.27604215,.0001109,43.0046,65.7726,262.0642,98.0084,0,U,57253,999,16549,-.34817E-3,-.9837E-4,0
