STARLINK-5983           
1 57224U 23094G   26188.05393455 -.00012426  00000+0 -44224-3 0  9992
2 57224  43.0026  76.3600 0001415 268.6884  91.3806 15.27620677165374
STARLINK-6294           
1 57225U 23094H   26186.92710758 -.00001353  00000+0 -39640-4 0  9990
2 57225  43.0044  83.3812 0001623 262.8376  97.2291 15.27571554165193
STARLINK-6350           
1 57226U 23094J   26188.02452927 -.00000785  00000+0 -19000-4 0  9991
2 57226  43.0056  76.9993 0001515 261.0570  99.0110 15.27568331165360
STARLINK-5996           
1 57227U 23094K   26187.92908212  .00000364  00000+0  22750-4 0  9990
2 57227  43.0044  80.5493 0001421 267.3888  92.6801 15.27580859165311
STARLINK-6230           
1 57228U 23094L   26187.97442391 -.00004588  00000+0 -15728-3 0  9997
2 57228  43.0026  76.6251 0001347 263.5854  96.4844 15.27581456165366
STARLINK-6233           
1 57229U 23094M   26187.96300003 -.00000085  00000+0  64397-5 0  9995
2 57229  43.0032  77.4009 0001812 281.8249  78.2400 15.27558253165356
STARLINK-6250           
1 57230U 23094N   26188.03096748  .00000155  00000+0  15146-4 0  9998
2 57230  43.0044  77.0489 0001022 319.4141  40.6635 15.27571527165364
STARLINK-5840           
1 57231U 23094P   26188.08606860 -.00000186  00000+0  27738-5 0  9992
2 57231  43.0047  76.5998 0001052 280.1202  79.9531 15.27560941165371
STARLINK-5872           
1 57232U 23094Q   26187.10012600 -.00002947  00000+0 -97654-4 0  9999
2 57232  43.0087  82.0955 0002098 321.1407  38.9294 15.27561807165884
STARLINK-5866           
1 57233U 23094R   26188.07449060  .00000442  00000+0  25593-4 0  9990
2 57233  43.0049  76.5140 0001622 263.9870  96.0797 15.27584322165370
STARLINK-6368           
1 57234U 23094S   26188.04880285 -.00001931  00000+0 -60686-4 0  9994
2 57234  43.0033  76.3138 0001026 257.0044 103.0693 15.27570921165378
STARLINK-6360           
1 57235U 23094T   26188.07062926 -.00000136  00000+0  45950-5 0  9995
2 57235  43.0062  76.4872 0002122 272.1919  87.8690 15.27575233165371
STARLINK-6315           
1 57236U 23094U   26188.04895547 -.00001785  00000+0 -55371-4 0  9995
2 57236  43.0059  65.8883 0001933 258.2992 101.7643 15.27570397165490
STARLINK-6365           
1 57237U 23094V   26188.12703905 -.00000957  00000+0 -25263-4 0  9998
2 57237  43.0037  76.0432 0001004 275.7153  84.3584 15.27564817165381
STARLINK-6334           
1 57238U 23094W   26188.06307591  .00000362  00000+0  22683-4 0  9994
2 57238  43.0037  65.9828 0001729 264.9485  95.1169 15.27577818165496
STARLINK-6330           
1 57239U 23094X   26188.05266311  .00001149  00000+0  51269-4 0  9994
2 57239  43.0025  76.3433 0001278 274.2936  85.7769 15.27576697165378
STARLINK-6351           
1 57240U 23094Y   26188.01298402 -.00001411  00000+0 -41780-4 0  9999
2 57240  43.0026  65.6131 0001181 242.6666 117.4066 15.27565668165491
STARLINK-6349           
1 57241U 23094Z   26188.05282211 -.00002372  00000+0 -76762-4 0  9990
2 57241  43.0062  65.9165 0000987 292.4851  67.5896 15.27561784165495
STARLINK-6306           
1 57242U 23094AA  26188.05924975  .00008826  00000+0  33038-3 0  9997
2 57242  43.0059  65.9608 0000821 262.4817  97.5941 15.27527092165498
STARLINK-6346           
1 57243U 23094AB  26188.05537779 -.00000862  00000+0 -21800-4 0  9999
2 57243  43.0065  65.9333 0001562 274.2303  85.8370 15.27573500165496
STARLINK-5610           
1 57244U 23094AC  26187.09113796  .00000136  00000+0  14462-4 0  9990
2 57244  43.0025  70.7368 0001358 263.6136  96.4561 15.27565127165355
STARLINK-5587           
1 57245U 23094AD  26188.06693889  .00000986  00000+0  45355-4 0  9993
2 57245  43.0065  66.0080 0001597 259.6900 100.3771 15.27570589165499
STARLINK-5049           
1 57246U 23094AE  26188.07451536 -.00000100  00000+0  58757-5 0  9996
2 57246  43.0027  65.2117 0001279 270.6952  89.3753 15.27560470165503
STARLINK-5039           
1 57247U 23094AF  26188.08221476 -.00000098  00000+0  59655-5 0  9990
2 57247  43.0027  65.2660 0001123 276.9874  83.0850 15.27573623165500
STARLINK-5514           
1 57248U 23094AG  26188.08608310 -.00000596  00000+0 -12164-4 0  9994
2 57248  43.0020  65.2939 0000872 264.1029  95.9723 15.27567423165506
STARLINK-5517           
1 57249U 23094AH  26188.02453562 -.00001988  00000+0 -62755-4 0  9993
2 57249  43.0050  65.6344 0001018 252.3878 107.6862 15.27566900165490
STARLINK-5488           
1 57250U 23094AJ  26188.03867667 -.00002264  00000+0 -72769-4 0  9995
2 57250  43.0064  65.8033 0001853 283.5407  76.5238 15.27569470165491
STARLINK-5513           
1 57251U 23094AK  26188.02839991 -.00002549  00000+0 -83155-4 0  9991
2 57251  43.0051  65.7239 0001510 270.6711  89.3968 15.27568754165496
STARLINK-5511           
1 57252U 23094AL  26188.01554517 -.00000380  00000+0 -42930-5 0  9997
2 57252  43.0053  65.6325 0001449 268.5147  91.5539 15.27567264165498
STARLINK-5516           
1 57253U 23094AM  26188.03482205 -.00009837  00000+0 -34817-3 0  9993
2 57253  43.0046  65.7726 0001109 262.0642  98.0084 15.27604215165494
